start=new Date('2021-10-05T00:00:00.000Z').valueOf();
sats=[{"REF_FRAME":"TEME","RA_OF_ASC_NODE":"44.9607","CLASSIFICATION_TYPE":"U","ARG_OF_PERICENTER":"96.6672","MEAN_MOTION":"15.06391483","MEAN_MOTION_DDOT":"0.0000000000000","OBJECT_TYPE":"PAYLOAD","MEAN_ELEMENT_THEORY":"SGP4","REV_AT_EPOCH":"9738","TLE_LINE2":"2 44932  53.0540  44.9607 0001553  96.6672 263.4494 15.06391483 97380","PERIOD":"95.593","NORAD_CAT_ID":"44932","MEAN_MOTION_DOT":"0.00000733","GP_ID":"186224015","APOAPSIS":"548.315","TIME_SYSTEM":"UTC","PERIAPSIS":"546.164","LAUNCH_DATE":"2020-01-07","ECCENTRICITY":"0.00015530","RCS_SIZE":"LARGE","SEMIMAJOR_AXIS":"6925.375","INCLINATION":"53.0540","OBJECT_ID":"2020-001U","EPHEMERIS_TYPE":"0","SITE":"AFETR","TLE_LINE1":"1 44932U 20001U   21277.83819155  .00000733  00000-0  68129-4 0  9997","CENTER_NAME":"EARTH","ELEMENT_SET_NO":"999","EPOCH":"2021-10-04T20:06:59.749920","OBJECT_NAME":"STARLINK-1130","DECAY_DATE":null,"MEAN_ANOMALY":"263.4494","BSTAR":"0.00006812900000","FILE":"3144803","COUNTRY_CODE":"US"},{"MEAN_ANOMALY":"261.9942","OBJECT_NAME":"STARLINK-1144","DECAY_DATE":null,"EPOCH":"2021-10-04T17:33:03.764448","COUNTRY_CODE":"US","FILE":"3144803","BSTAR":"0.00000936230000","TLE_LINE1":"1 44933U 20001V   21277.73129357 -.00000142  00000-0  93623-5 0  9998","EPHEMERIS_TYPE":"0","SITE":"AFETR","INCLINATION":"53.0558","OBJECT_ID":"2020-001V","ELEMENT_SET_NO":"999","CENTER_NAME":"EARTH","PERIAPSIS":"546.265","LAUNCH_DATE":"2020-01-07","ECCENTRICITY":"0.00013740","TIME_SYSTEM":"UTC","APOAPSIS":"548.168","SEMIMAJOR_AXIS":"6925.351","RCS_SIZE":"LARGE","OBJECT_TYPE":"PAYLOAD","MEAN_MOTION_DDOT":"0.0000000000000","CLASSIFICATION_TYPE":"U","MEAN_MOTION":"15.06399135","ARG_OF_PERICENTER":"98.1203","REF_FRAME":"TEME","RA_OF_ASC_NODE":"45.4319","MEAN_MOTION_DOT":"-0.00000142","GP_ID":"186224762","TLE_LINE2":"2 44933  53.0558  45.4319 0001374  98.1203 261.9942 15.06399135 97422","PERIOD":"95.592","NORAD_CAT_ID":"44933","MEAN_ELEMENT_THEORY":"SGP4","REV_AT_EPOCH":"9742"},{"PERIAPSIS":"546.444","LAUNCH_DATE":"2020-01-07","ECCENTRICITY":"0.00011590","TIME_SYSTEM":"UTC","APOAPSIS":"548.050","SEMIMAJOR_AXIS":"6925.382","RCS_SIZE":"LARGE","OBJECT_TYPE":"PAYLOAD","MEAN_MOTION_DDOT":"0.0000000000000","ARG_OF_PERICENTER":"106.3196","MEAN_MOTION":"15.06389044","CLASSIFICATION_TYPE":"U","RA_OF_ASC_NODE":"25.0759","REF_FRAME":"TEME","GP_ID":"186223513","MEAN_MOTION_DOT":"0.00001012","NORAD_CAT_ID":"44934","TLE_LINE2":"2 44934  53.0556  25.0759 0001159 106.3196 253.7920 15.06389044 96429","PERIOD":"95.593","MEAN_ELEMENT_THEORY":"SGP4","REV_AT_EPOCH":"9642","MEAN_ANOMALY":"253.7920","DECAY_DATE":null,"OBJECT_NAME":"STARLINK-1071","EPOCH":"2021-10-04T19:27:12.690720","COUNTRY_CODE":"US","FILE":"3144803","BSTAR":"0.00008682700000","TLE_LINE1":"1 44934U 20001W   21277.81056355  .00001012  00000-0  86827-4 0  9998","SITE":"AFETR","EPHEMERIS_TYPE":"0","OBJECT_ID":"2020-001W","INCLINATION":"53.0556","ELEMENT_SET_NO":"999","CENTER_NAME":"EARTH"},{"CENTER_NAME":"EARTH","ELEMENT_SET_NO":"999","EPHEMERIS_TYPE":"0","SITE":"AFETR","OBJECT_ID":"2020-001X","INCLINATION":"53.0540","TLE_LINE1":"1 44935U 20001X   21277.73428043  .00027254  00000-0  21289-3 0  9993","FILE":"3144803","BSTAR":"0.00021289000000","COUNTRY_CODE":"US","EPOCH":"2021-10-04T17:37:21.829152","MEAN_ANOMALY":"316.5221","OBJECT_NAME":"STARLINK-1072","DECAY_DATE":null,"MEAN_ELEMENT_THEORY":"SGP4","REV_AT_EPOCH":"9665","GP_ID":"186223264","MEAN_MOTION_DOT":"0.00027254","NORAD_CAT_ID":"44935","PERIOD":"91.634","TLE_LINE2":"2 44935  53.0540   8.5814 0002257  43.5974 316.5221 15.71471933 96655","ARG_OF_PERICENTER":"43.5974","MEAN_MOTION":"15.71471933","CLASSIFICATION_TYPE":"U","RA_OF_ASC_NODE":"8.5814","REF_FRAME":"TEME","OBJECT_TYPE":"PAYLOAD","MEAN_MOTION_DDOT":"0.0000000000000","RCS_SIZE":"LARGE","SEMIMAJOR_AXIS":"6732.826","TIME_SYSTEM":"UTC","APOAPSIS":"356.211","ECCENTRICITY":"0.00022570","LAUNCH_DATE":"2020-01-07","PERIAPSIS":"353.172"},{"EPOCH":"2021-10-04T20:16:35.569632","DECAY_DATE":null,"OBJECT_NAME":"STARLINK-1078","MEAN_ANOMALY":"316.3100","BSTAR":"0.00196560000000","FILE":"3144803","COUNTRY_CODE":"US","INCLINATION":"53.0607","OBJECT_ID":"2020-001Y","EPHEMERIS_TYPE":"0","SITE":"AFETR","TLE_LINE1":"1 44936U 20001Y   21277.84485613  .00496392  00000-0  19656-2 0  9999","CENTER_NAME":"EARTH","ELEMENT_SET_NO":"999","APOAPSIS":"320.960","TIME_SYSTEM":"UTC","LAUNCH_DATE":"2020-01-07","PERIAPSIS":"312.183","ECCENTRICITY":"0.00065550","RCS_SIZE":"LARGE","SEMIMAJOR_AXIS":"6694.706","REF_FRAME":"TEME","RA_OF_ASC_NODE":"325.3675","CLASSIFICATION_TYPE":"U","ARG_OF_PERICENTER":"43.8442","MEAN_MOTION":"15.84913093","MEAN_MOTION_DDOT":"0.0000000000000","OBJECT_TYPE":"PAYLOAD","MEAN_ELEMENT_THEORY":"SGP4","REV_AT_EPOCH":"9726","PERIOD":"90.857","TLE_LINE2":"2 44936  53.0607 325.3675 0006555  43.8442 316.3100 15.84913093 97267","NORAD_CAT_ID":"44936","MEAN_MOTION_DOT":"0.00496392","GP_ID":"186224515"},{"SITE":"AFETR","EPHEMERIS_TYPE":"0","OBJECT_ID":"2020-001Z","INCLINATION":"53.0551","TLE_LINE1":"1 44937U 20001Z   21277.78842621  .00000421  00000-0  47143-4 0  9997","CENTER_NAME":"EARTH","ELEMENT_SET_NO":"999","EPOCH":"2021-10-04T18:55:20.024544","MEAN_ANOMALY":"254.4106","DECAY_DATE":null,"OBJECT_NAME":"STARLINK-1079","FILE":"3144803","BSTAR":"0.00004714300000","COUNTRY_CODE":"US","MEAN_MOTION":"15.06395300","ARG_OF_PERICENTER":"105.7025","CLASSIFICATION_TYPE":"U","RA_OF_ASC_NODE":"25.1836","REF_FRAME":"TEME","OBJECT_TYPE":"PAYLOAD","MEAN_MOTION_DDOT":"0.0000000000000","MEAN_ELEMENT_THEORY":"SGP4","REV_AT_EPOCH":"9642","GP_ID":"186224263","MEAN_MOTION_DOT":"0.00000421","NORAD_CAT_ID":"44937","PERIOD":"95.592","TLE_LINE2":"2 44937  53.0551  25.1836 0001288 105.7025 254.4106 15.06395300 96427","TIME_SYSTEM":"UTC","APOAPSIS":"548.120","ECCENTRICITY":"0.00012880","LAUNCH_DATE":"2020-01-07","PERIAPSIS":"546.336","RCS_SIZE":"LARGE","SEMIMAJOR_AXIS":"6925.363"},{"SEMIMAJOR_AXIS":"6925.372","RCS_SIZE":"LARGE","LAUNCH_DATE":"2020-01-07","PERIAPSIS":"546.275","ECCENTRICITY":"0.00013890","APOAPSIS":"548.199","TIME_SYSTEM":"UTC","PERIOD":"95.593","TLE_LINE2":"2 44938  53.0555  25.0248 0001389 111.4518 248.6619 15.06392222 96425","NORAD_CAT_ID":"44938","MEAN_MOTION_DOT":"-0.00001149","GP_ID":"186223014","REV_AT_EPOCH":"9642","MEAN_ELEMENT_THEORY":"SGP4","MEAN_MOTION_DDOT":"0.0000000000000","OBJECT_TYPE":"PAYLOAD","REF_FRAME":"TEME","RA_OF_ASC_NODE":"25.0248","CLASSIFICATION_TYPE":"U","ARG_OF_PERICENTER":"111.4518","MEAN_MOTION":"15.06392222","COUNTRY_CODE":"US","BSTAR":"-0.00005827700000","FILE":"3144803","DECAY_DATE":null,"OBJECT_NAME":"STARLINK-1082","MEAN_ANOMALY":"248.6619","EPOCH":"2021-10-04T19:43:06.687552","ELEMENT_SET_NO":"999","CENTER_NAME":"EARTH","TLE_LINE1":"1 44938U 20001AA  21277.82160518 -.00001149  00000-0 -58277-4 0  9991","INCLINATION":"53.0555","OBJECT_ID":"2020-001AA","EPHEMERIS_TYPE":"0","SITE":"AFETR"},{"COUNTRY_CODE":"US","BSTAR":"0.00006383900000","FILE":"3144803","DECAY_DATE":null,"OBJECT_NAME":"STARLINK-1083","MEAN_ANOMALY":"251.7172","EPOCH":"2021-10-04T16:42:39.226176","ELEMENT_SET_NO":"999","CENTER_NAME":"EARTH","TLE_LINE1":"1 44939U 20001AB  21277.69628734  .00000669  00000-0  63839-4 0  9990","INCLINATION":"53.0546","OBJECT_ID":"2020-001AB","EPHEMERIS_TYPE":"0","SITE":"AFETR","SEMIMAJOR_AXIS":"6925.389","RCS_SIZE":"LARGE","LAUNCH_DATE":"2020-01-07","PERIAPSIS":"546.407","ECCENTRICITY":"0.00012240","APOAPSIS":"548.102","TIME_SYSTEM":"UTC","TLE_LINE2":"2 44939  53.0546  25.5978 0001224 108.3950 251.7172 15.06386739 96407","PERIOD":"95.593","NORAD_CAT_ID":"44939","MEAN_MOTION_DOT":"0.00000669","GP_ID":"186223764","MEAN_ELEMENT_THEORY":"SGP4","REV_AT_EPOCH":"9640","MEAN_MOTION_DDOT":"0.0000000000000","OBJECT_TYPE":"PAYLOAD","REF_FRAME":"TEME","RA_OF_ASC_NODE":"25.5978","CLASSIFICATION_TYPE":"U","MEAN_MOTION":"15.06386739","ARG_OF_PERICENTER":"108.3950"},{"EPOCH":"2021-10-04T16:58:34.179456","MEAN_ANOMALY":"253.6687","DECAY_DATE":null,"OBJECT_NAME":"STARLINK-1091","FILE":"3144803","BSTAR":"0.00002782400000","COUNTRY_CODE":"US","SITE":"AFETR","EPHEMERIS_TYPE":"0","OBJECT_ID":"2020-001AC","INCLINATION":"53.0555","TLE_LINE1":"1 44940U 20001AC  21277.70734004  .00000133  00000-0  27824-4 0  9992","CENTER_NAME":"EARTH","ELEMENT_SET_NO":"999","TIME_SYSTEM":"UTC","APOAPSIS":"548.072","LAUNCH_DATE":"2020-01-07","PERIAPSIS":"546.428","ECCENTRICITY":"0.00011870","RCS_SIZE":"LARGE","SEMIMAJOR_AXIS":"6925.385","MEAN_MOTION":"15.06388130","ARG_OF_PERICENTER":"106.4432","CLASSIFICATION_TYPE":"U","RA_OF_ASC_NODE":"25.5367","REF_FRAME":"TEME","OBJECT_TYPE":"PAYLOAD","MEAN_MOTION_DDOT":"0.0000000000000","REV_AT_EPOCH":"9640","MEAN_ELEMENT_THEORY":"SGP4","GP_ID":"186224016","MEAN_MOTION_DOT":"0.00000133","NORAD_CAT_ID":"44940","TLE_LINE2":"2 44940  53.0555  25.5367 0001187 106.4432 253.6687 15.06388130 96402","PERIOD":"95.593"},{"INCLINATION":"53.0556","OBJECT_ID":"2020-001AD","EPHEMERIS_TYPE":"0","SITE":"AFETR","TLE_LINE1":"1 44941U 20001AD  21277.79580711 -.00001411  00000-0 -75880-4 0  9993","CENTER_NAME":"EARTH","ELEMENT_SET_NO":"999","EPOCH":"2021-10-04T19:05:57.734304","OBJECT_NAME":"STARLINK-1094","DECAY_DATE":null,"MEAN_ANOMALY":"262.2462","BSTAR":"-0.00007588000000","FILE":"3144803","COUNTRY_CODE":"US","REF_FRAME":"TEME","RA_OF_ASC_NODE":"25.1405","CLASSIFICATION_TYPE":"U","ARG_OF_PERICENTER":"97.8646","MEAN_MOTION":"15.06386617","MEAN_MOTION_DDOT":"0.0000000000000","OBJECT_TYPE":"PAYLOAD","REV_AT_EPOCH":"9642","MEAN_ELEMENT_THEORY":"SGP4","PERIOD":"95.593","TLE_LINE2":"2 44941  53.0556  25.1405 0001050  97.8646 262.2462 15.06386617 96429","NORAD_CAT_ID":"44941","MEAN_MOTION_DOT":"-0.00001411","GP_ID":"186224763","APOAPSIS":"547.982","TIME_SYSTEM":"UTC","LAUNCH_DATE":"2020-01-07","ECCENTRICITY":"0.00010500","PERIAPSIS":"546.527","RCS_SIZE":"LARGE","SEMIMAJOR_AXIS":"6925.390"}];
